FENGYUN 1C DEB          
1 29827U 99025DV  17345.65065691  .00000130  00000-0  83748-4 0  9999
2 29827  98.7178  17.0836 0027540 114.2875  10.9897 14.18262892564272
